NORAD_CAT_ID,OBJECT_NAME,OBJECT_TYPE,EPOCH,MEAN_MOTION,ECCENTRICITY,INCLINATION,RA_OF_ASC_NODE,ARG_OF_PERICENTER,MEAN_ANOMALY,BSTAR,MEAN_MOTION_DOT,MEAN_MOTION_DDOT,TLE_LINE0,TLE_LINE1,TLE_LINE2,SEMIMAJOR_AXIS,PERIOD,APOGEE,PERIGEE,DECAYED
53719.0,STARLINK-4644,PAYLOAD,2022-09-12 16:00:00,15.88003114,0.0004631,53.2175,235.5519,270.2339,256.6453,-0.0049248999999999,-0.01197748,0.0,0 STARLINK-4644,1 53719U 22107V   22255.66667824 -.01197748  00000-0 -49249-2 0  9997,2 53719  53.2175 235.5519 0004631 270.2339 256.6453 15.88003114  1306,6686.019,90.68,310.98,304.788,0.0
53719.0,STARLINK-4644,PAYLOAD,2022-09-13 14:00:01,15.85605743,4.89e-05,53.2173,230.924,277.8102,88.5333,-0.0054507,-0.0119908999999999,0.0,0 STARLINK-4644,1 53719U 22107V   22256.58334491 -.01199090  00000-0 -54507-2 0  9995,2 53719  53.2173 230.9240 0000489 277.8102  88.5333 15.85605743  1304,6692.757,90.817,314.949,314.2940000000001,0.0
53719.0,STARLINK-4644,PAYLOAD,2022-09-13 16:00:00,15.85397369,1.09e-05,53.2175,230.5035,77.1198,45.1448,-0.0055803,-0.01213194,0.0,0 STARLINK-4644,1 53719U 22107V   22256.66667824 -.01213194  00000-0 -55803-2 0  9995,2 53719  53.2175 230.5035 0000109  77.1198  45.1448 15.85397369  1453,6693.343000000003,90.829,315.281,315.135,0.0
53719.0,STARLINK-4644,PAYLOAD,2022-09-13 22:00:00,15.84738645,9.7e-05,53.2175,229.2437,94.4051,15.241,-0.0056893,-0.01199958,0.0,0 STARLINK-4644,1 53719U 22107V   22256.91667824 -.01199958  00000-0 -56893-2 0  9994,2 53719  53.2175 229.2437 0000970  94.4051  15.2410 15.84738645  1306,6695.198,90.867,317.712,316.413,0.0
53719.0,STARLINK-4644,PAYLOAD,2022-09-14 04:00:00,15.88494031,0.000785,53.2127,227.9569,280.4789,189.0069,0.00047806,0.00137629,0.0,0 STARLINK-4644,1 53719U 22107V   22257.16667824  .00137629  00000-0  47806-3 0  9991,2 53719  53.2127 227.9569 0007850 280.4789 189.0069 15.88494031  1530,6684.641,90.652,311.754,301.259,0.0
53719.0,STARLINK-4644,PAYLOAD,2022-09-14 14:00:01,15.88615757,0.0007843,53.213,225.8473,281.4308,52.234,0.00037697,0.00108669,0.0,0 STARLINK-4644,1 53719U 22107V   22257.58334491  .00108669  00000-0  37697-3 0  9997,2 53719  53.2130 225.8473 0007843 281.4308  52.2340 15.88615757  1606,6684.3,90.645,311.407,300.922,0.0
53719.0,STARLINK-4644,PAYLOAD,2022-09-14 22:00:00,15.88705779,0.0007691,53.2132,224.1586,281.0755,160.0878,0.00060129,0.00175892,0.0,0 STARLINK-4644,1 53719U 22107V   22257.91667824  .00175892  00000-0  60129-3 0  9991,2 53719  53.2132 224.1586 0007691 281.0755 160.0878 15.88705779  1303,6684.047,90.64,311.053,300.772,0.0
53719.0,STARLINK-4644,PAYLOAD,2022-09-15 04:00:00,15.88796294,0.0007721,53.2126,222.8945,283.2891,148.5844,0.0004611,0.00134694,0.0,0 STARLINK-4644,1 53719U 22107V   22258.16667824  .00134694  00000-0  46110-3 0  9998,2 53719  53.2126 222.8945 0007721 283.2891 148.5844 15.88796294  1697,6683.794,90.635,310.819,300.498,0.0
53719.0,STARLINK-4644,PAYLOAD,2022-09-15 14:00:01,15.88941887,0.000773,53.2124,220.7835,283.6639,12.8936,0.00033632,0.0009835,0.0,0 STARLINK-4644,1 53719U 22107V   22258.58334491  .00098350  00000-0  33632-3 0  9998,2 53719  53.2124 220.7835 0007730 283.6639  12.8936 15.88941887  1307,6683.385,90.626,310.4170000000001,300.084,0.0
53719.0,STARLINK-4644,PAYLOAD,2022-09-15 22:00:00,15.89037753,0.0007595,53.2126,219.0942,283.381,121.0716,0.00054055,0.0016042,0.0,0 STARLINK-4644,1 53719U 22107V   22258.91667824  .00160420  00000-0  54055-3 0  9994,2 53719  53.2126 219.0942 0007595 283.3810 121.0716 15.89037753  1304,6683.116,90.621,310.057,299.906,0.0
53719.0,STARLINK-4644,PAYLOAD,2022-09-16 00:00:00,15.89077619,0.0007618999999999,53.2127,218.6725,283.9378,237.5051,0.00042752,0.00126486,0.0,0 STARLINK-4644,1 53719U 22107V   22259.00001157  .00126486  00000-0  42752-3 0  9991,2 53719  53.2127 218.6725 0007619 283.9378 237.5051 15.89077619  1828,6683.005,90.619,309.961,299.778,0.0
53719.0,STARLINK-4644,PAYLOAD,2022-09-16 06:00:00,15.8897931,0.0007444,53.2128,217.4078,280.7128,231.636,0.00057179,0.00169392,0.0,0 STARLINK-4644,1 53719U 22107V   22259.25001157  .00169392  00000-0  57179-3 0  9990,2 53719  53.2128 217.4078 0007444 280.7128 231.6360 15.88979310  1861,6683.28,90.624,310.12,300.17,0.0
53719.0,STARLINK-4644,PAYLOAD,2022-09-16 14:00:01,15.89099836,0.0007449,53.2124,215.7179,280.42400000000004,339.8737,0.00037923,0.00112042,0.0,0 STARLINK-4644,1 53719U 22107V   22259.58334491  .00112042  00000-0  37923-3 0  9991,2 53719  53.2124 215.7179 0007449 280.4240 339.8737 15.89099836  1302,6682.941999999999,90.617,309.786,299.829,0.0
53719.0,STARLINK-4644,PAYLOAD,2022-09-16 22:00:00,15.89184285,0.000736,53.2125,214.0287,280.0491,88.31700000000002,0.00043048,0.00123589,1.6558e-05,0 STARLINK-4644,1 53719U 22107V   22259.91667824  .00123589  16558-4  43048-3 0  9999,2 53719  53.2125 214.0287 0007360 280.0491  88.3170 15.89184285  1301,6682.706,90.613,309.4890000000001,299.652,0.0
53719.0,STARLINK-4644,PAYLOAD,2022-09-17 06:00:00,15.89419498,0.0008013,53.2124,212.3417,285.5361,191.0994,0.00059001,0.00172824,2.1837e-05,0 STARLINK-4644,1 53719U 22107V   22260.25001157  .00172824  21837-4  59001-3 0  9997,2 53719  53.2124 212.3417 0008013 285.5361 191.0994 15.89419498  2021,6682.045999999999,90.599,309.266,298.557,0.0
53719.0,STARLINK-4644,PAYLOAD,2022-09-17 14:00:01,15.89542063,0.0007982999999999,53.2124,210.6504,285.5569,299.5616,0.00038607,0.00112607,1.5657e-05,0 STARLINK-4644,1 53719U 22107V   22260.58334491  .00112607  15657-4  38607-3 0  9998,2 53719  53.2124 210.6504 0007983 285.5569 299.5616 15.89542063  1304,6681.703,90.592,308.902,298.2340000000001,0.0
53719.0,STARLINK-4644,PAYLOAD,2022-09-17 22:00:00,15.89637261,0.0007865,53.2125,208.96,285.9348,47.7851,0.00041109,0.00120716,1.6346e-05,0 STARLINK-4644,1 53719U 22107V   22260.91667824  .00120716  16346-4  41109-3 0  9991,2 53719  53.2125 208.9600 0007865 285.9348  47.7851 15.89637261  1309,6681.436,90.587,308.556,298.046,0.0
53719.0,STARLINK-4644,PAYLOAD,2022-09-18 14:00:01,15.898343,0.0007909,53.2117,205.5797,287.6183,263.7423,0.00044933,0.00133633,1.755e-05,0 STARLINK-4644,1 53719U 22107V   22261.58335648  .00133633  17550-4  44933-3 0  9999,2 53719  53.2117 205.5797 0007909 287.6183 263.7423 15.89834300  1303,6680.884,90.575,308.033,297.465,0.0
53719.0,STARLINK-4644,PAYLOAD,2022-09-18 22:00:00,15.89942445,0.0007815,53.2119,203.8888,287.9208,12.3335,0.00042924,0.00128216,1.7048e-05,0 STARLINK-4644,1 53719U 22107V   22261.91667824  .00128216  17048-4  42924-3 0  9991,2 53719  53.2119 203.8888 0007815 287.9208  12.3335 15.89942445  1304,6680.581,90.569,307.6670000000001,297.225,0.0
53719.0,STARLINK-4644,PAYLOAD,2022-09-19 06:00:02,15.90016664,0.0007902,53.2119,202.1998,290.3908,119.0431,0.00071244,0.00215914,2.8051e-05,0 STARLINK-4644,1 53719U 22107V   22262.25002315  .00215914  28051-4  71244-3 0  9992,2 53719  53.2119 202.1998 0007902 290.3908 119.0431 15.90016664  2344,6680.373000000001,90.565,307.517,296.959,0.0
53719.0,STARLINK-4644,PAYLOAD,2022-09-19 14:00:01,15.90138886,0.0007922999999999,53.2119,200.5068,289.9269,228.6544,0.00046849,0.0014171,1.8387e-05,0 STARLINK-4644,1 53719U 22107V   22262.58334491  .00141710  18387-4  46849-3 0  9997,2 53719  53.2119 200.5068 0007923 289.9269 228.6544 15.90138886  2399,6680.031,90.558,307.188,296.603,0.0
53719.0,STARLINK-4644,PAYLOAD,2022-09-19 22:00:00,15.90269505,0.0007827999999999,53.2118,198.8155,290.2839,337.6391,0.00046088,0.00140296,1.8257e-05,0 STARLINK-4644,1 53719U 22107V   22262.91667824  .00140296  18257-4  46088-3 0  9992,2 53719  53.2118 198.8155 0007828 290.2839 337.6391 15.90269505  1300,6679.665,90.551,306.759,296.301,0.0
53719.0,STARLINK-4644,PAYLOAD,2022-09-20 06:00:00,15.90342457,0.0007927,53.2118,197.1255,292.687,84.7383,0.00074258,0.00229021,3.0277e-05,0 STARLINK-4644,1 53719U 22107V   22263.25001157  .00229021  30277-4  74258-3 0  9991,2 53719  53.2118 197.1255 0007927 292.6870  84.7383 15.90342457  2506,6679.4609999999975,90.547,306.621,296.031,0.0
53719.0,STARLINK-4644,PAYLOAD,2022-09-20 14:00:01,15.90459743,0.0007928999999999,53.2122,195.4314,292.1121,194.9228,0.00048958,0.00150748,1.9387e-05,0 STARLINK-4644,1 53719U 22107V   22263.58334491  .00150748  19387-4  48958-3 0  9993,2 53719  53.2122 195.4314 0007929 292.1121 194.9228 15.90459743  1300,6679.132,90.54,306.293,295.702,0.0
53719.0,STARLINK-4644,PAYLOAD,2022-09-20 22:00:01,15.90584629,0.00078,53.2123,193.7393,293.2387,303.588,0.00038753,0.00119374,1.6312e-05,0 STARLINK-4644,1 53719U 22107V   22263.91668981  .00119374  16312-4  38753-3 0  9991,2 53719  53.2123 193.7393 0007800 293.2387 303.5880 15.90584629  1307,6678.783,90.533,305.857,295.438,0.0
53719.0,STARLINK-4644,PAYLOAD,2022-09-21 06:00:00,15.90660657,0.0007882,53.2118,192.0485,295.628,51.0235,0.0006778,0.0021222,2.7613e-05,0 STARLINK-4644,1 53719U 22107V   22264.25001157  .00212220  27613-4  67780-3 0  9997,2 53719  53.2118 192.0485 0007882 295.6280  51.0235 15.90660657  2668,6678.57,90.528,305.699,295.171,0.0
53719.0,STARLINK-4644,PAYLOAD,2022-09-21 14:00:01,15.90776749,0.0007842,53.2118,190.3536,293.8744,162.7726,0.00057212,0.0017968,2.2934e-05,0 STARLINK-4644,1 53719U 22107V   22264.58334491  .00179680  22934-4  57212-3 0  9995,2 53719  53.2118 190.3536 0007842 293.8744 162.7726 15.90776749  2718,6678.245,90.522,305.347,294.873,0.0
53719.0,STARLINK-4644,PAYLOAD,2022-09-21 22:00:00,15.90900074,0.0007775,53.2121,188.661,295.0467,271.6983,0.00035675,0.00111458,1.5672000000000002e-05,0 STARLINK-4644,1 53719U 22107V   22264.91667824  .00111458  15672-4  35675-3 0  9990,2 53719  53.2121 188.6610 0007775 295.0467 271.6983 15.90900074  2777,6677.9,90.515,304.957,294.573,0.0
53719.0,STARLINK-4644,PAYLOAD,2022-09-22 14:00:01,15.91058318,0.0007857,53.2123,185.2738,296.2452,131.0997,0.00053287,0.00169604,2.1683e-05,0 STARLINK-4644,1 53719U 22107V   22265.58334491  .00169604  21683-4  53287-3 0  9999,2 53719  53.2123 185.2738 0007857 296.2452 131.0997 15.91058318  1309,6677.456999999999,90.506,304.569,294.076,0.0
